NORAD_CAT_ID,OBJECT_NAME,OBJECT_TYPE,EPOCH,MEAN_MOTION,ECCENTRICITY,INCLINATION,RA_OF_ASC_NODE,ARG_OF_PERICENTER,MEAN_ANOMALY,BSTAR,MEAN_MOTION_DOT,MEAN_MOTION_DDOT,TLE_LINE0,TLE_LINE1,TLE_LINE2,SEMIMAJOR_AXIS,PERIOD,APOGEE,PERIGEE,DECAYED
55760.0,STARLINK-5532,PAYLOAD,2023-06-16 14:55:46,14.983436,0.0003359,69.9991,238.2309,269.8378,90.2396,0.00012508,1.4e-05,0.0,0 STARLINK-5532,1 55760U 23028V   23167.62207053  .00001400  00000-0  12508-3 0  9996,2 55760  69.9991 238.2309 0003359 269.8378  90.2396 14.98343600 16697,6950.151,96.106,574.35,569.681,0.0
55760.0,STARLINK-5532,PAYLOAD,2023-06-17 05:21:00,14.983262,0.0003022,70.0007,236.7173,269.7747,90.3065,1.4676e-05,8.2e-07,0.0,0 STARLINK-5532,1 55760U 23028V   23168.22292375  .00000082  00000-0  14676-4 0  9998,2 55760  70.0007 236.7173 0003022 269.7747  90.3065 14.98326200 16776,6950.205,96.107,574.17,569.969,0.0
55760.0,STARLINK-5532,PAYLOAD,2023-06-17 08:33:16,14.98325053,0.0003139,69.9998,236.3796,270.6605,89.4194,-2.6506e-05,-4.09e-06,0.0,0 STARLINK-5532,1 55760U 23028V   23168.35644575 -.00000409  00000-0 -26506-4 0  9995,2 55760  69.9998 236.3796 0003139 270.6605  89.4194 14.98325053 16803,6950.208,96.107,574.255,569.892,0.0
55760.0,STARLINK-5532,PAYLOAD,2023-06-17 21:22:21,14.98324182,0.0003126,69.9997,235.0328,273.2233,86.8568,-4.5185e-06,-1.47e-06,0.0,0 STARLINK-5532,1 55760U 23028V   23168.89052730 -.00000147  00000-0 -45185-5 0  9994,2 55760  69.9997 235.0328 0003126 273.2233  86.8568 14.98324182 16887,6950.211,96.107,574.249,569.903,0.0
55760.0,STARLINK-5532,PAYLOAD,2023-06-18 10:11:26,14.98294652,0.0003214,69.9999,233.6871,267.0326,93.0466,0.00058972,6.944e-05,0.0,0 STARLINK-5532,1 55760U 23028V   23169.42461316  .00006944  00000-0  58972-3 0  9993,2 55760  69.9999 233.6871 0003214 267.0326  93.0466 14.98294652 16951,6950.302,96.109,574.401,569.933,0.0
55760.0,STARLINK-5532,PAYLOAD,2023-06-18 22:00:00,14.9832501,0.0003531,70.0,232.4453,272.1205,221.4476,0.00043735,5.129e-05,0.0,0 STARLINK-5532,1 55760U 23028V   23169.91667824  .00005129  00000-0  43735-3 0  9994,2 55760  70.0000 232.4453 0003531 272.1205 221.4476 14.98325010 17025,6950.208,96.107,574.527,569.619,0.0
55760.0,STARLINK-5532,PAYLOAD,2023-06-19 10:13:26,14.98331306,0.0003428,69.9988,231.1615,271.5998,88.4768,9.4675e-05,1.037e-05,0.0,0 STARLINK-5532,1 55760U 23028V   23170.42599823  .00001037  00000-0  94675-4 0  9999,2 55760  69.9988 231.1615 0003428 271.5998  88.4768 14.98331306 17110,6950.189,96.107,574.436,569.671,0.0
55760.0,STARLINK-5532,PAYLOAD,2023-06-20 03:50:55,14.98325696,0.0003392,69.9989,229.31,271.2155,88.8616,1.3122e-05,6.3e-07,0.0,0 STARLINK-5532,1 55760U 23028V   23171.16036435  .00000063  00000-0  13122-4 0  9992,2 55760  69.9989 229.3100 0003392 271.2155  88.8616 14.98325696 17213,6950.206,96.107,574.429,569.714,0.0
55760.0,STARLINK-5532,PAYLOAD,2023-06-20 10:15:27,14.98328263,0.0003397,69.9988,228.6366,270.7606,89.3164,2.5701e-05,2.14e-06,0.0,0 STARLINK-5532,1 55760U 23028V   23171.42740265  .00000214  00000-0  25701-4 0  9998,2 55760  69.9988 228.6366 0003397 270.7606  89.3164 14.98328263 17260,6950.198,96.107,574.424,569.702,0.0
55760.0,STARLINK-5532,PAYLOAD,2023-06-21 11:53:36,14.98332772,0.0003404,69.9988,225.943,269.7348,90.3421,-2.1399e-05,-3.48e-06,0.0,0 STARLINK-5532,1 55760U 23028V   23172.49556056 -.00000348  00000-0 -21399-4 0  9998,2 55760  69.9988 225.9430 0003404 269.7348  90.3421 14.98332772 17417,6950.184,96.107,574.415,569.683,0.0
55760.0,STARLINK-5532,PAYLOAD,2023-06-21 13:29:44,14.98333437,0.0003403,69.9988,225.7747,269.7343,90.3426,-1.3312e-05,-2.52e-06,0.0,0 STARLINK-5532,1 55760U 23028V   23172.56231980 -.00000252  00000-0 -13312-4 0  9992,2 55760  69.9988 225.7747 0003403 269.7343  90.3426 14.98333437 17436,6950.182,96.107,574.412,569.682,0.0
55760.0,STARLINK-5532,PAYLOAD,2023-06-22 13:31:45,14.98329211,0.0003496,69.9989,223.2498,269.4308,90.645,1.3711e-05,7.1e-07,0.0,0 STARLINK-5532,1 55760U 23028V   23173.56372172  .00000071  00000-0  13711-4 0  9992,2 55760  69.9989 223.2498 0003496 269.4308  90.6450 14.98329211 17573,6950.195,96.107,574.49,569.631,0.0
55760.0,STARLINK-5532,PAYLOAD,2023-06-23 13:33:45,14.98335986,0.0003516,69.9989,220.7251,269.3916,90.684,5.8004e-05,5.99e-06,0.0,0 STARLINK-5532,1 55760U 23028V   23174.56511441  .00000599  00000-0  58004-4 0  9996,2 55760  69.9989 220.7251 0003516 269.3916  90.6840 14.98335986 17725,6950.174,96.107,574.483,569.596,0.0
55760.0,STARLINK-5532,PAYLOAD,2023-06-24 02:22:51,14.9832684,0.0003489,69.9991,219.3787,268.7849,91.291,-2.1739e-05,-3.52e-06,0.0,0 STARLINK-5532,1 55760U 23028V   23175.09920156 -.00000352  00000-0 -21739-4 0  9996,2 55760  69.9991 219.3787 0003489 268.7849  91.2910 14.98326840 17806,6950.203,96.107,574.493,569.643,0.0
55760.0,STARLINK-5532,PAYLOAD,2023-06-25 08:49:23,14.98332658,0.0003436,69.999,216.1808,268.2078,91.8687,-2.5579e-05,-3.98e-06,0.0,0 STARLINK-5532,1 55760U 23028V   23176.36763806 -.00000398  00000-0 -25579-4 0  9990,2 55760  69.9990 216.1808 0003436 268.2078  91.8687 14.98332658 17996,6950.185,96.107,574.438,569.662,0.0
55760.0,STARLINK-5532,PAYLOAD,2023-06-26 08:51:25,14.98326729,0.0003587,69.9984,213.6556,269.4356,90.6392,6.8874e-06,-1.1e-07,0.0,0 STARLINK-5532,1 55760U 23028V   23177.36904067 -.00000011  00000-0  68874-5 0  9994,2 55760  69.9984 213.6556 0003587 269.4356  90.6392 14.98326729 18140,6950.203,96.107,574.561,569.575,0.0
55760.0,STARLINK-5532,PAYLOAD,2023-06-27 10:29:34,14.98329791,0.0003607,69.9984,210.9623,269.4667,90.6078,-1.6969e-05,-2.96e-06,0.0,0 STARLINK-5532,1 55760U 23028V   23178.43720033 -.00000296  00000-0 -16969-4 0  9995,2 55760  69.9984 210.9623 0003607 269.4667  90.6078 14.98329791 18304,6950.194,96.107,574.565,569.552,0.0
55760.0,STARLINK-5532,PAYLOAD,2023-06-28 12:07:42,14.98333211,0.0003624,69.9984,208.269,269.4334,90.641,5.4539e-05,5.58e-06,0.0,0 STARLINK-5532,1 55760U 23028V   23179.50535521  .00000558  00000-0  54539-4 0  9994,2 55760  69.9984 208.2690 0003624 269.4334  90.6410 14.98333211 18467,6950.183,96.107,574.567,569.529,0.0
55760.0,STARLINK-5532,PAYLOAD,2023-06-29 12:09:43,14.98330841,0.0003608,69.9985,205.7441,269.4839,90.5906,2.3914e-05,1.92e-06,0.0,0 STARLINK-5532,1 55760U 23028V   23180.50675644  .00000192  00000-0  23914-4 0  9994,2 55760  69.9985 205.7441 0003608 269.4839  90.5906 14.98330841 18618,6950.19,96.107,574.563,569.548,0.0
55760.0,STARLINK-5532,PAYLOAD,2023-06-30 18:36:16,14.9833012,0.0003584,69.9986,202.5461,269.0474,91.0275,-3.0118e-05,-4.52e-06,0.0,0 STARLINK-5532,1 55760U 23028V   23181.77519663 -.00000452  00000-0 -30118-4 0  9997,2 55760  69.9986 202.5461 0003584 269.0474  91.0275 14.98330120 18806,6950.193,96.107,574.548,569.567,0.0
55760.0,STARLINK-5532,PAYLOAD,2023-07-01 18:38:18,14.98328622,0.0003611,69.9986,200.0212,269.2664,90.8082,-1.4684e-05,-2.68e-06,0.0,0 STARLINK-5532,1 55760U 23028V   23182.77659762 -.00000268  00000-0 -14684-4 0  9998,2 55760  69.9986 200.0212 0003611 269.2664  90.8082 14.98328622 18950,6950.197,96.107,574.572,569.552,0.0
55760.0,STARLINK-5532,PAYLOAD,2023-07-03 02:40:59,14.98329951,0.0003667,69.9984,196.6545,268.8105,91.2633,4.4661e-05,4.4e-06,0.0,0 STARLINK-5532,1 55760U 23028V   23184.11179482  .00000440  00000-0  44661-4 0  9992,2 55760  69.9984 196.6545 0003667 268.8105  91.2633 14.98329951 19159,6950.193,96.107,574.607,569.509,0.0
55760.0,STARLINK-5532,PAYLOAD,2023-07-04 02:42:59,14.98331119,0.0003652,69.9985,194.1296,268.5254,91.5487,1.1798e-05,4.8e-07,0.0,0 STARLINK-5532,1 55760U 23028V   23185.11319400  .00000048  00000-0  11798-4 0  9998,2 55760  69.9985 194.1296 0003652 268.5254  91.5487 14.98331119 19308,6950.189,96.107,574.593,569.516,0.0
55760.0,STARLINK-5532,PAYLOAD,2023-07-05 09:09:33,14.98329731,0.0003584,69.9993,190.9322,268.6239,91.4509,-2.0735e-05,-3.4e-06,0.0,0 STARLINK-5532,1 55760U 23028V   23186.38163473 -.00000340  00000-0 -20735-4 0  9993,2 55760  69.9993 190.9322 0003584 268.6239  91.4509 14.98329731 19490,6950.194,96.107,574.55,569.568,0.0
55760.0,STARLINK-5532,PAYLOAD,2023-07-06 17:12:14,14.98329841,0.000361,69.9994,187.5655,268.571,91.5036,-6.7051e-07,-1.01e-06,0.0,0 STARLINK-5532,1 55760U 23028V   23187.71683306 -.00000101  00000-0 -67051-6 0  9992,2 55760  69.9994 187.5655 0003610 268.5710  91.5036 14.98329841 19695,6950.193,96.107,574.567,569.549,0.0
55760.0,STARLINK-5532,PAYLOAD,2023-07-07 17:14:15,14.98329066,0.0003633,69.9994,185.0409,268.9781,91.0962,8.2121e-07,-8.3e-07,0.0,0 STARLINK-5532,1 55760U 23028V   23188.71823364 -.00000083  00000-0  82121-6 0  9996,2 55760  69.9994 185.0409 0003633 268.9781  91.0962 14.98329066 19841,6950.196,96.107,574.586,569.536,0.0
55760.0,STARLINK-5532,PAYLOAD,2023-07-08 17:16:16,14.98308499,0.0003502,69.9993,182.5163,275.643,84.4329,0.00037419,4.372e-05,0.0,0 STARLINK-5532,1 55760U 23028V   23189.71963964  .00004372  00000-0  37419-3 0  9999,2 55760  69.9993 182.5163 0003502 275.6430  84.4329 14.98308499 19996,6950.259,96.108,574.558,569.69,0.0
55760.0,STARLINK-5532,PAYLOAD,2023-07-09 02:53:04,14.98329499,0.0003636,69.9993,181.5063,268.6628,91.4114,9.3569e-06,1.9e-07,0.0,0 STARLINK-5532,1 55760U 23028V   23190.12019311  .00000019  00000-0  93569-5 0  9998,2 55760  69.9993 181.5063 0003636 268.6628  91.4114 14.98329499 20055,6950.194,96.107,574.587,569.532,0.0
55760.0,STARLINK-5532,PAYLOAD,2023-07-10 02:55:05,14.98329183,0.000363,69.9993,178.9816,268.5497,91.5246,1.0889e-05,3.7e-07,0.0,0 STARLINK-5532,1 55760U 23028V   23191.12159296  .00000037  00000-0  10889-4 0  9999,2 55760  69.9993 178.9816 0003630 268.5497  91.5246 14.98329183 20202,6950.195,96.107,574.583,569.537,0.0
55760.0,STARLINK-5532,PAYLOAD,2023-07-11 09:21:38,14.98333089,0.0003556,69.9997,175.7837,268.3272,91.7479,3.2677e-05,2.97e-06,0.0,0 STARLINK-5532,1 55760U 23028V   23192.39002864  .00000297  00000-0  32677-4 0  9994,2 55760  69.9997 175.7837 0003556 268.3272  91.7479 14.98333089 20390,6950.183,96.107,574.52,569.577,0.0
